{
  "norad_id": 61864,
  "name": "STARLINK-32318",
  "history": [
    {
      "epoch": "2026-03-28T13:59:36.676896Z",
      "apogee_km": 484.13245523837395,
      "perigee_km": 481.93002023406007,
      "latitude_deg": -8.570313335758713e-06,
      "longitude_deg": 95.68244115618093,
      "height_km": 483.1726218689099,
      "semi_major_axis_km": 6861.168237736217,
      "eccentricity": 0.0001605,
      "inclination_deg": 43.0001,
      "raan_deg": 131.5867,
      "arg_perigee_deg": 250.6636,
      "mean_anomaly_deg": 109.4042,
      "mean_motion_rev_day": 15.27585964
    },
    {
      "epoch": "2026-03-29T04:06:59.950944Z",
      "apogee_km": 484.3281459742311,
      "perigee_km": 481.7167886809657,
      "latitude_deg": -4.246840742217115e-05,
      "longitude_deg": -120.06808667563799,
      "height_km": 482.9272599454412,
      "semi_major_axis_km": 6861.159467327598,
      "eccentricity": 0.0001903,
      "inclination_deg": 43.0013,
      "raan_deg": 128.2632,
      "arg_perigee_deg": 264.3931,
      "mean_anomaly_deg": 95.6703,
      "mean_motion_rev_day": 15.27588893
    }
  ]
}